STARLINK-2307
1 27990C 21024P   21325.14298550  .00002647  00000-0  17738-3 0  3256
2 27990  53.0511  92.6208 0001228  93.6575  33.4620 15.06389219    14
